OBJECT_NAME,OBJECT_ID,EPOCH,MEAN_MOTION,ECCENTRICITY,INCLINATION,RA_OF_ASC_NODE,ARG_OF_PERICENTER,MEAN_ANOMALY,EPHEMERIS_TYPE,CLASSIFICATION_TYPE,NORAD_CAT_ID,ELEMENT_SET_NO,REV_AT_EPOCH,BSTAR,MEAN_MOTION_DOT,MEAN_MOTION_DDOT
ONEWEB-0607,2022-166AF,2026-07-12T15:15:39.453120,13.21825906,.0001936,87.9237,238.9083,95.6227,264.5128,0,U,54671,999,17490,.90573E-4,.5E-6,0
ONEWEB-0608,2022-166AG,2026-07-12T15:25:18.416064,13.21823130,.0001861,87.9242,238.9044,81.5106,278.6239,0,U,54672,999,17491,.34601E-3,.156E-5,0
ONEWEB-0610,2022-166AH,2026-07-12T13:07:16.563072,13.21825753,.0001463,87.9224,238.9358,92.9089,267.2213,0,U,54673,999,17480,.12255E-3,.64E-6,0
ONEWEB-0611,2022-166AJ,2026-07-12T12:57:33.153120,13.21826073,.0002204,87.9234,238.9305,97.9157,262.2227,0,U,54674,999,17479,-.5583E-4,-.1E-6,0
ONEWEB-0612,2022-166AK,2026-07-12T15:05:57.544800,13.21826876,.0001883,87.9244,238.9123,94.1769,265.9580,0,U,54675,999,17479,-.23882E-4,.3E-7,0
ONEWEB-0615,2022-166AL,2026-07-12T12:47:51.786528,13.21825523,.00021668,87.9235,238.9437,101.5343,258.6034,0,U,54676,999,17479,-.4697637E-3,-.181E-5,0
ONEWEB-0655,2022-166AM,2026-07-12T15:51:57.655008,13.21823243,.0001903,87.9236,238.9192,102.2047,257.9300,0,U,54677,999,17480,-.94104E-4,-.26E-6,0
ONEWEB-0659,2022-166AN,2026-07-12T16:16:11.567424,13.21823363,.0002222,87.9221,238.9178,90.6829,269.4560,0,U,54678,999,17489,.2388E-3,.112E-5,0
ONEWEB-0685,2022-166AP,2026-07-12T12:37:42.906720,13.21848912,.00016875,87.9231,238.9363,90.3904,269.7423,0,U,54679,999,17476,.2472354E-3,.115E-5,0
ONEWEB-0712,2022-166AQ,2026-07-12T23:23:57.621408,13.16595509,.0001781,87.9082,223.6524,107.3711,252.7615,0,U,54680,999,17545,.86751E-4,.46E-6,0
ONEWEB-0714,2022-166AR,2026-07-12T12:45:28.537920,13.21825546,.00019808,87.9235,238.9339,104.7284,255.4070,0,U,54681,999,17488,.12426615E-3,.64E-6,0
ONEWEB-0532,2023-004A,2026-07-12T22:14:30.278112,13.17648548,.0002011,87.9141,0.7432,86.0072,274.1289,0,U,55140,999,17097,.67816E-4,.39E-6,0
ONEWEB-0533,2023-004B,2026-07-12T22:05:41.248320,13.12443334,.0001639,87.8960,345.5531,94.0222,266.1094,0,U,55141,999,17143,-.76606E-3,-.263E-5,0
ONEWEB-0541,2023-004C,2026-07-12T21:27:49.165920,13.11414822,.0002045,87.8895,15.9410,89.1450,270.9912,0,U,55142,999,16931,.7552E-3,.28E-5,0
ONEWEB-0543,2023-004D,2026-07-12T21:15:50.698080,13.18686604,.0001858,87.9183,330.3577,105.6729,254.4608,0,U,55143,999,17308,-.14335E-4,.7E-7,0
ONEWEB-0544,2023-004E,2026-07-12T21:06:07.758144,13.18687033,.0002023,87.9185,330.3584,102.4786,257.6573,0,U,55144,999,17308,.8422E-4,.46E-6,0
ONEWEB-0560,2023-004F,2026-07-12T20:56:25.046304,13.18684697,.0002126,87.9179,330.3499,104.2954,255.8414,0,U,55145,999,17309,.34701E-3,.15E-5,0
ONEWEB-0565,2023-004G,2026-07-12T20:46:43.036032,13.18687283,.0002239,87.9168,330.3767,95.2206,264.9182,0,U,55146,999,17308,.89013E-4,.48E-6,0
ONEWEB-0567,2023-004H,2026-07-12T20:36:59.950080,13.18687479,.0002204,87.9177,330.3646,92.0368,268.1016,0,U,55147,999,17308,-.16682E-3,-.53E-6,0
ONEWEB-0569,2023-004J,2026-07-12T19:58:32.328768,13.13471618,.0002745,87.8991,315.1167,109.8510,250.2915,0,U,55148,999,17354,-.80071E-3,-.28E-5,0
ONEWEB-0570,2023-004K,2026-07-12T22:14:07.109088,13.18686608,.0002072,87.9190,330.3477,90.1445,269.9925,0,U,55149,999,17308,.13101E-4,.18E-6,0
ONEWEB-0571,2023-004L,2026-07-12T22:04:25.332096,13.18686229,.0003145,87.9181,330.3493,104.4817,255.6664,0,U,55150,999,17309,.43296E-4,.3E-6,0
ONEWEB-0572,2023-004M,2026-07-12T21:10:06.449376,13.17651466,.0002071,87.9136,0.7523,92.4139,267.7229,0,U,55151,999,17086,.93704E-4,.49E-6,0
ONEWEB-0573,2023-004N,2026-07-12T21:54:40.544064,13.18687745,.0002757,87.9186,330.3518,99.2195,260.9249,0,U,55152,999,17308,-.31669E-5,.12E-6,0
ONEWEB-0588,2023-004P,2026-07-12T21:44:59.309664,13.18686719,.000205,87.9195,330.3511,93.0725,267.0642,0,U,55153,999,17308,-.30368E-3,-.107E-5,0
ONEWEB-0598,2023-004Q,2026-07-12T22:45:57.139200,13.11418049,.0002472,87.8883,15.9380,100.3141,259.8265,0,U,55154,999,16927,.11603E-2,.424E-5,0
ONEWEB-0599,2023-004R,2026-07-12T22:03:33.233760,13.17650433,.0001849,87.9141,0.7443,99.6348,260.4993,0,U,55155,999,17087,.52549E-4,.33E-6,0
ONEWEB-0614,2023-004S,2026-07-12T22:38:37.223232,13.11418475,.0001801,87.8879,15.9476,82.1208,278.0124,0,U,55156,999,16921,.75815E-3,.281E-5,0
ONEWEB-0616,2023-004T,2026-07-12T21:14:57.269184,13.17650706,.000166,87.9142,0.7547,121.9050,238.2243,0,U,55157,999,17108,.74773E-4,.42E-6,0
ONEWEB-0617,2023-004U,2026-07-12T22:21:30.765312,13.11419618,.0001939,87.8887,15.9427,77.5343,282.6002,0,U,55158,999,16923,-.6037E-3,-.201E-5,0
ONEWEB-0618,2023-004V,2026-07-12T21:57:17.899200,15.13361758,.0011818,86.9104,167.1880,183.5251,176.5908,0,U,55159,999,18615,.1247E-3,.226E-4,0
