ONEWEB-0607             
1 54671U 22166AF  26193.63587330  .00000050  00000+0  90573-4 0  9998
2 54671  87.9237 238.9083 0001936  95.6227 264.5128 13.21825906174900
ONEWEB-0608             
1 54672U 22166AG  26193.64257426  .00000156  00000+0  34601-3 0  9996
2 54672  87.9242 238.9044 0001861  81.5106 278.6239 13.21823130174918
ONEWEB-0610             
1 54673U 22166AH  26193.54671948  .00000064  00000+0  12255-3 0  9994
2 54673  87.9224 238.9358 0001463  92.9089 267.2213 13.21825753174808
ONEWEB-0611             
1 54674U 22166AJ  26193.53996705 -.00000010  00000+0 -55830-4 0  9995
2 54674  87.9234 238.9305 0002204  97.9157 262.2227 13.21826073174791
ONEWEB-0612             
1 54675U 22166AK  26193.62913825  .00000003  00000+0 -23882-4 0  9991
2 54675  87.9244 238.9123 0001883  94.1769 265.9580 13.21826876174794
ONEWEB-0615             
1 54676U 22166AL  26193.53323827 -.00000181  00000+0 -46976-3 0  9995
2 54676  87.9235 238.9437 0002166 101.5343 258.6034 13.21825523174790
ONEWEB-0655             
1 54677U 22166AM  26193.66108397 -.00000026  00000+0 -94104-4 0  9998
2 54677  87.9236 238.9192 0001903 102.2047 257.9300 13.21823243174804
ONEWEB-0659             
1 54678U 22166AN  26193.67791166  .00000112  00000+0  23880-3 0  9998
2 54678  87.9221 238.9178 0002222  90.6829 269.4560 13.21823363174894
ONEWEB-0685             
1 54679U 22166AP  26193.52619105  .00000115  00000+0  24724-3 0  9996
2 54679  87.9231 238.9363 0001687  90.3904 269.7423 13.21848912174761
ONEWEB-0712             
1 54680U 22166AQ  26193.97497247  .00000046  00000+0  86751-4 0  9990
2 54680  87.9082 223.6524 0001781 107.3711 252.7615 13.16595509175454
ONEWEB-0714             
1 54681U 22166AR  26193.53158030  .00000064  00000+0  12427-3 0  9995
2 54681  87.9235 238.9339 0001980 104.7284 255.4070 13.21825546174889
ONEWEB-0532             
1 55140U 23004A   26193.92673933  .00000039  00000+0  67816-4 0  9990
2 55140  87.9141   0.7432 0002011  86.0072 274.1289 13.17648548170974
ONEWEB-0533             
1 55141U 23004B   26193.92061630 -.00000263  00000+0 -76606-3 0  9993
2 55141  87.8960 345.5531 0001639  94.0222 266.1094 13.12443334171432
ONEWEB-0541             
1 55142U 23004C   26193.89431905  .00000280  00000+0  75520-3 0  9997
2 55142  87.8895  15.9410 0002045  89.1450 270.9912 13.11414822169319
ONEWEB-0543             
1 55143U 23004D   26193.88600345  .00000007  00000+0 -14335-4 0  9999
2 55143  87.9183 330.3577 0001858 105.6729 254.4608 13.18686604173087
ONEWEB-0544             
1 55144U 23004E   26193.87925646  .00000046  00000+0  84220-4 0  9995
2 55144  87.9185 330.3584 0002023 102.4786 257.6573 13.18687033173084
ONEWEB-0560             
1 55145U 23004F   26193.87251211  .00000150  00000+0  34701-3 0  9990
2 55145  87.9179 330.3499 0002126 104.2954 255.8414 13.18684697173092
ONEWEB-0565             
1 55146U 23004G   26193.86577588  .00000048  00000+0  89013-4 0  9991
2 55146  87.9168 330.3767 0002239  95.2206 264.9182 13.18687283173089
ONEWEB-0567             
1 55147U 23004H   26193.85902720 -.00000053  00000+0 -16682-3 0  9990
2 55147  87.9177 330.3646 0002204  92.0368 268.1016 13.18687479173081
ONEWEB-0569             
1 55148U 23004J   26193.83231862 -.00000280  00000+0 -80071-3 0  9996
2 55148  87.8991 315.1167 0002745 109.8510 250.2915 13.13471618173542
ONEWEB-0570             
1 55149U 23004K   26193.92647117  .00000018  00000+0  13101-4 0  9999
2 55149  87.9190 330.3477 0002072  90.1445 269.9925 13.18686608173089
ONEWEB-0571             
1 55150U 23004L   26193.91973764  .00000030  00000+0  43296-4 0  9992
2 55150  87.9181 330.3493 0003145 104.4817 255.6664 13.18686229173095
ONEWEB-0572             
1 55151U 23004M   26193.88201909  .00000049  00000+0  93704-4 0  9993
2 55151  87.9136   0.7523 0002071  92.4139 267.7229 13.17651466170865
ONEWEB-0573             
1 55152U 23004N   26193.91296926  .00000012  00000+0 -31669-5 0  9995
2 55152  87.9186 330.3518 0002757  99.2195 260.9249 13.18687745173089
ONEWEB-0588             
1 55153U 23004P   26193.90624201 -.00000107  00000+0 -30368-3 0  9995
2 55153  87.9195 330.3511 0002050  93.0725 267.0642 13.18686719173085
ONEWEB-0598             
1 55154U 23004Q   26193.94857800  .00000424  00000+0  11603-2 0  9993
2 55154  87.8883  15.9380 0002472 100.3141 259.8265 13.11418049169279
ONEWEB-0599             
1 55155U 23004R   26193.91913465  .00000033  00000+0  52549-4 0  9993
2 55155  87.9141   0.7443 0001849  99.6348 260.4993 13.17650433170871
ONEWEB-0614             
1 55156U 23004S   26193.94348638  .00000281  00000+0  75815-3 0  9996
2 55156  87.8879  15.9476 0001801  82.1208 278.0124 13.11418475169212
ONEWEB-0616             
1 55157U 23004T   26193.88538506  .00000042  00000+0  74773-4 0  9993
2 55157  87.9142   0.7547 0001660 121.9050 238.2243 13.17650706171087
ONEWEB-0617             
1 55158U 23004U   26193.93160608 -.00000201  00000+0 -60370-3 0  9990
2 55158  87.8887  15.9427 0001939  77.5343 282.6002 13.11419618169237
ONEWEB-0618             
1 55159U 23004V   26193.91479050  .00002260  00000+0  12470-3 0  9996
2 55159  86.9104 167.1880 0011818 183.5251 176.5908 15.13361758186157
